STARLINK-37069          
1 68158U 26049S   26101.62551786  .00177980  00000+0  11678-2 0  9995
2 68158  97.2849 122.5068 0001767  78.2043 281.9421 15.75221835  4604
STARLINK-37053          
1 68159U 26049T   26101.59904949  .00206148  00000+0  13489-2 0  9996
2 68159  97.2846 122.5433 0001833  91.4993 268.6482 15.75207230  4605
STARLINK-36306          
1 68160U 26049U   26101.62163350  .00186709  00000+0  12229-2 0  9996
2 68160  97.2840 122.5116 0001622  85.0701 275.0749 15.75237955  4606
STARLINK-37057          
1 68161U 26049V   26101.59693029  .00218772  00000+0  14281-2 0  9990
2 68161  97.2843 122.5465 0001684  78.9003 281.2452 15.75225542  4600
STARLINK-37013          
1 68162U 26049W   26101.83334491 -.00052686  00000+0 -35429-3 0  9993
2 68162  97.2847 122.8599 0001591  89.0753 316.7770 15.75205577  5950
STARLINK-36958          
1 68163U 26049X   26101.60116617  .00296855  00000+0  19240-2 0  9995
2 68163  97.2850 122.5411 0001353  78.4272 281.7145 15.75174896  4606
STARLINK-37002          
1 68164U 26049Y   26101.83334491 -.00036407  00000+0 -24421-3 0  9998
2 68164  97.2844 122.8547 0001381  86.7898 307.0740 15.75194234  5950
STARLINK-36971          
1 68165U 26049Z   26101.60751514  .00312595  00000+0  20209-2 0  9995
2 68165  97.2840 122.5336 0000828 116.0550 244.0801 15.75189353  4602
STARLINK-36273          
1 68166U 26049AA  26101.55740038  .00343752  00000+0  22066-2 0  9991
2 68166  97.2853 122.4455 0001187  90.9002 269.2400 15.75266916  4592
STARLINK-36969          
1 68167U 26050A   26101.83334491 -.01883662  00000+0 -22321-1 0  9992
2 68167  53.1597 115.9897 0000831  95.0090 238.6021 15.63746753  5773
STARLINK-36984          
1 68168U 26050B   26101.83334491 -.01666205  00000+0 -30486-1 0  9996
2 68168  53.1604 116.4522 0000690  80.8719  24.6967 15.51907281  5771
STARLINK-37077          
1 68169U 26050C   26101.83334491 -.01884239  00000+0 -20797-1 0  9990
2 68169  53.1598 115.9219 0000653  96.1478 270.7031 15.65519574  5777
STARLINK-37003          
1 68170U 26050D   26101.83334491 -.01894037  00000+0 -20507-1 0  9998
2 68170  53.1596 115.9003 0000665  91.7128 285.7156 15.66010873  5777
STARLINK-37034          
1 68171U 26050E   26101.83334491 -.01881669  00000+0 -21837-1 0  9993
2 68171  53.1600 115.9388 0000758  95.3419 262.9016 15.64267234  5771
STARLINK-37031          
1 68172U 26050F   26101.83334491 -.01876542  00000+0 -19340-1 0  9994
2 68172  53.1598 115.8527 0000624  91.2590 309.2716 15.67191628  5777
STARLINK-37076          
1 68173U 26050G   26101.83334491 -.01901551  00000+0 -18803-1 0  9997
2 68173  53.1594 115.8207 0000859  88.8099 327.6402 15.68235377  5772
STARLINK-37078          
1 68174U 26050H   26101.83334491 -.01902620  00000+0 -18759-1 0  9996
2 68174  53.1595 115.8101 0000866  88.6373 332.8442 15.68306250  5779
