[{"OBJECT_NAME":"STARLINK-37069","OBJECT_ID":"2026-049S","EPOCH":"2026-04-11T15:00:44.743104","MEAN_MOTION":15.75221835,"ECCENTRICITY":0.0001767,"INCLINATION":97.2849,"RA_OF_ASC_NODE":122.5068,"ARG_OF_PERICENTER":78.2043,"MEAN_ANOMALY":281.9421,"EPHEMERIS_TYPE":0,"CLASSIFICATION_TYPE":"U","NORAD_CAT_ID":68158,"ELEMENT_SET_NO":999,"REV_AT_EPOCH":460,"BSTAR":0.0011678,"MEAN_MOTION_DOT":0.0017798,"MEAN_MOTION_DDOT":0},{"OBJECT_NAME":"STARLINK-37053","OBJECT_ID":"2026-049T","EPOCH":"2026-04-11T14:22:37.875936","MEAN_MOTION":15.7520723,"ECCENTRICITY":0.0001833,"INCLINATION":97.2846,"RA_OF_ASC_NODE":122.5433,"ARG_OF_PERICENTER":91.4993,"MEAN_ANOMALY":268.6482,"EPHEMERIS_TYPE":0,"CLASSIFICATION_TYPE":"U","NORAD_CAT_ID":68159,"ELEMENT_SET_NO":999,"REV_AT_EPOCH":460,"BSTAR":0.0013489,"MEAN_MOTION_DOT":0.00206148,"MEAN_MOTION_DDOT":0},{"OBJECT_NAME":"STARLINK-36306","OBJECT_ID":"2026-049U","EPOCH":"2026-04-11T14:55:09.134400","MEAN_MOTION":15.75237955,"ECCENTRICITY":0.0001622,"INCLINATION":97.284,"RA_OF_ASC_NODE":122.5116,"ARG_OF_PERICENTER":85.0701,"MEAN_ANOMALY":275.0749,"EPHEMERIS_TYPE":0,"CLASSIFICATION_TYPE":"U","NORAD_CAT_ID":68160,"ELEMENT_SET_NO":999,"REV_AT_EPOCH":460,"BSTAR":0.0012229,"MEAN_MOTION_DOT":0.00186709,"MEAN_MOTION_DDOT":0},{"OBJECT_NAME":"STARLINK-37057","OBJECT_ID":"2026-049V","EPOCH":"2026-04-11T14:19:34.777056","MEAN_MOTION":15.75225542,"ECCENTRICITY":0.0001684,"INCLINATION":97.2843,"RA_OF_ASC_NODE":122.5465,"ARG_OF_PERICENTER":78.9003,"MEAN_ANOMALY":281.2452,"EPHEMERIS_TYPE":0,"CLASSIFICATION_TYPE":"U","NORAD_CAT_ID":68161,"ELEMENT_SET_NO":999,"REV_AT_EPOCH":460,"BSTAR":0.0014281,"MEAN_MOTION_DOT":0.00218772,"MEAN_MOTION_DDOT":0},{"OBJECT_NAME":"STARLINK-37013","OBJECT_ID":"2026-049W","EPOCH":"2026-04-11T20:00:01.000224","MEAN_MOTION":15.75205577,"ECCENTRICITY":0.0001591,"INCLINATION":97.2847,"RA_OF_ASC_NODE":122.8599,"ARG_OF_PERICENTER":89.0753,"MEAN_ANOMALY":316.777,"EPHEMERIS_TYPE":0,"CLASSIFICATION_TYPE":"U","NORAD_CAT_ID":68162,"ELEMENT_SET_NO":999,"REV_AT_EPOCH":595,"BSTAR":-0.00035429,"MEAN_MOTION_DOT":-0.00052686,"MEAN_MOTION_DDOT":0},{"OBJECT_NAME":"STARLINK-36958","OBJECT_ID":"2026-049X","EPOCH":"2026-04-11T14:25:40.757088","MEAN_MOTION":15.75174896,"ECCENTRICITY":0.0001353,"INCLINATION":97.285,"RA_OF_ASC_NODE":122.5411,"ARG_OF_PERICENTER":78.4272,"MEAN_ANOMALY":281.7145,"EPHEMERIS_TYPE":0,"CLASSIFICATION_TYPE":"U","NORAD_CAT_ID":68163,"ELEMENT_SET_NO":999,"REV_AT_EPOCH":460,"BSTAR":0.001924,"MEAN_MOTION_DOT":0.00296855,"MEAN_MOTION_DDOT":0},{"OBJECT_NAME":"STARLINK-37002","OBJECT_ID":"2026-049Y","EPOCH":"2026-04-11T20:00:01.000224","MEAN_MOTION":15.75194234,"ECCENTRICITY":0.0001381,"INCLINATION":97.2844,"RA_OF_ASC_NODE":122.8547,"ARG_OF_PERICENTER":86.7898,"MEAN_ANOMALY":307.074,"EPHEMERIS_TYPE":0,"CLASSIFICATION_TYPE":"U","NORAD_CAT_ID":68164,"ELEMENT_SET_NO":999,"REV_AT_EPOCH":595,"BSTAR":-0.00024421,"MEAN_MOTION_DOT":-0.00036407,"MEAN_MOTION_DDOT":0},{"OBJECT_NAME":"STARLINK-36971","OBJECT_ID":"2026-049Z","EPOCH":"2026-04-11T14:34:49.308096","MEAN_MOTION":15.75189353,"ECCENTRICITY":8.28e-5,"INCLINATION":97.284,"RA_OF_ASC_NODE":122.5336,"ARG_OF_PERICENTER":116.055,"MEAN_ANOMALY":244.0801,"EPHEMERIS_TYPE":0,"CLASSIFICATION_TYPE":"U","NORAD_CAT_ID":68165,"ELEMENT_SET_NO":999,"REV_AT_EPOCH":460,"BSTAR":0.0020209,"MEAN_MOTION_DOT":0.00312595,"MEAN_MOTION_DDOT":0},{"OBJECT_NAME":"STARLINK-36273","OBJECT_ID":"2026-049AA","EPOCH":"2026-04-11T13:22:39.392832","MEAN_MOTION":15.75266916,"ECCENTRICITY":0.0001187,"INCLINATION":97.2853,"RA_OF_ASC_NODE":122.4455,"ARG_OF_PERICENTER":90.9002,"MEAN_ANOMALY":269.24,"EPHEMERIS_TYPE":0,"CLASSIFICATION_TYPE":"U","NORAD_CAT_ID":68166,"ELEMENT_SET_NO":999,"REV_AT_EPOCH":459,"BSTAR":0.0022066,"MEAN_MOTION_DOT":0.00343752,"MEAN_MOTION_DDOT":0},{"OBJECT_NAME":"STARLINK-36969","OBJECT_ID":"2026-050A","EPOCH":"2026-04-11T20:00:01.000224","MEAN_MOTION":15.63746753,"ECCENTRICITY":8.31e-5,"INCLINATION":53.1597,"RA_OF_ASC_NODE":115.9897,"ARG_OF_PERICENTER":95.009,"MEAN_ANOMALY":238.6021,"EPHEMERIS_TYPE":0,"CLASSIFICATION_TYPE":"U","NORAD_CAT_ID":68167,"ELEMENT_SET_NO":999,"REV_AT_EPOCH":577,"BSTAR":-0.022321,"MEAN_MOTION_DOT":-0.01883662,"MEAN_MOTION_DDOT":0},{"OBJECT_NAME":"STARLINK-36984","OBJECT_ID":"2026-050B","EPOCH":"2026-04-11T20:00:01.000224","MEAN_MOTION":15.51907281,"ECCENTRICITY":6.9e-5,"INCLINATION":53.1604,"RA_OF_ASC_NODE":116.4522,"ARG_OF_PERICENTER":80.8719,"MEAN_ANOMALY":24.6967,"EPHEMERIS_TYPE":0,"CLASSIFICATION_TYPE":"U","NORAD_CAT_ID":68168,"ELEMENT_SET_NO":999,"REV_AT_EPOCH":577,"BSTAR":-0.030486,"MEAN_MOTION_DOT":-0.01666205,"MEAN_MOTION_DDOT":0},{"OBJECT_NAME":"STARLINK-37077","OBJECT_ID":"2026-050C","EPOCH":"2026-04-11T20:00:01.000224","MEAN_MOTION":15.65519574,"ECCENTRICITY":6.53e-5,"INCLINATION":53.1598,"RA_OF_ASC_NODE":115.9219,"ARG_OF_PERICENTER":96.1478,"MEAN_ANOMALY":270.7031,"EPHEMERIS_TYPE":0,"CLASSIFICATION_TYPE":"U","NORAD_CAT_ID":68169,"ELEMENT_SET_NO":999,"REV_AT_EPOCH":577,"BSTAR":-0.020797,"MEAN_MOTION_DOT":-0.01884239,"MEAN_MOTION_DDOT":0},{"OBJECT_NAME":"STARLINK-37003","OBJECT_ID":"2026-050D","EPOCH":"2026-04-11T20:00:01.000224","MEAN_MOTION":15.66010873,"ECCENTRICITY":6.65e-5,"INCLINATION":53.1596,"RA_OF_ASC_NODE":115.9003,"ARG_OF_PERICENTER":91.7128,"MEAN_ANOMALY":285.7156,"EPHEMERIS_TYPE":0,"CLASSIFICATION_TYPE":"U","NORAD_CAT_ID":68170,"ELEMENT_SET_NO":999,"REV_AT_EPOCH":577,"BSTAR":-0.020507,"MEAN_MOTION_DOT":-0.01894037,"MEAN_MOTION_DDOT":0},{"OBJECT_NAME":"STARLINK-37034","OBJECT_ID":"2026-050E","EPOCH":"2026-04-11T20:00:01.000224","MEAN_MOTION":15.64267234,"ECCENTRICITY":7.58e-5,"INCLINATION":53.16,"RA_OF_ASC_NODE":115.9388,"ARG_OF_PERICENTER":95.3419,"MEAN_ANOMALY":262.9016,"EPHEMERIS_TYPE":0,"CLASSIFICATION_TYPE":"U","NORAD_CAT_ID":68171,"ELEMENT_SET_NO":999,"REV_AT_EPOCH":577,"BSTAR":-0.021837,"MEAN_MOTION_DOT":-0.01881669,"MEAN_MOTION_DDOT":0},{"OBJECT_NAME":"STARLINK-37031","OBJECT_ID":"2026-050F","EPOCH":"2026-04-11T20:00:01.000224","MEAN_MOTION":15.67191628,"ECCENTRICITY":6.24e-5,"INCLINATION":53.1598,"RA_OF_ASC_NODE":115.8527,"ARG_OF_PERICENTER":91.259,"MEAN_ANOMALY":309.2716,"EPHEMERIS_TYPE":0,"CLASSIFICATION_TYPE":"U","NORAD_CAT_ID":68172,"ELEMENT_SET_NO":999,"REV_AT_EPOCH":577,"BSTAR":-0.01934,"MEAN_MOTION_DOT":-0.01876542,"MEAN_MOTION_DDOT":0},{"OBJECT_NAME":"STARLINK-37076","OBJECT_ID":"2026-050G","EPOCH":"2026-04-11T20:00:01.000224","MEAN_MOTION":15.68235377,"ECCENTRICITY":8.59e-5,"INCLINATION":53.1594,"RA_OF_ASC_NODE":115.8207,"ARG_OF_PERICENTER":88.8099,"MEAN_ANOMALY":327.6402,"EPHEMERIS_TYPE":0,"CLASSIFICATION_TYPE":"U","NORAD_CAT_ID":68173,"ELEMENT_SET_NO":999,"REV_AT_EPOCH":577,"BSTAR":-0.018803,"MEAN_MOTION_DOT":-0.01901551,"MEAN_MOTION_DDOT":0},{"OBJECT_NAME":"STARLINK-37078","OBJECT_ID":"2026-050H","EPOCH":"2026-04-11T20:00:01.000224","MEAN_MOTION":15.6830625,"ECCENTRICITY":8.66e-5,"INCLINATION":53.1595,"RA_OF_ASC_NODE":115.8101,"ARG_OF_PERICENTER":88.6373,"MEAN_ANOMALY":332.8442,"EPHEMERIS_TYPE":0,"CLASSIFICATION_TYPE":"U","NORAD_CAT_ID":68174,"ELEMENT_SET_NO":999,"REV_AT_EPOCH":577,"BSTAR":-0.018759,"MEAN_MOTION_DOT":-0.0190262,"MEAN_MOTION_DDOT":0}]
